start=new Date('2023-02-05T00:00:00.000Z').valueOf();
sats=[{"TIME_SYSTEM":"UTC","BSTAR":"0.00019672000000","MEAN_ELEMENT_THEORY":"SGP4","ELEMENT_SET_NO":"999","EPHEMERIS_TYPE":"0","CLASSIFICATION_TYPE":"U","APOAPSIS":"573.909","LAUNCH_DATE":"2021-09-14","TLE_LINE1":"1 49158U 21082AE  23035.87392957  .00002255  00000-0  19672-3 0  9995","RA_OF_ASC_NODE":"240.6035","GP_ID":"224440014","NORAD_CAT_ID":"49158","CENTER_NAME":"EARTH","REV_AT_EPOCH":"7848","OBJECT_ID":"2021-082AE","RCS_SIZE":"LARGE","PERIOD":"96.107","SITE":"AFWTR","SEMIMAJOR_AXIS":"6950.213","OBJECT_NAME":"STARLINK-3083","EPOCH":"2023-02-04T20:58:27.514848","DECAY_DATE":null,"PERIAPSIS":"570.247","INCLINATION":"69.9973","REF_FRAME":"TEME","ARG_OF_PERICENTER":"273.9493","MEAN_MOTION":"14.98323466","TLE_LINE2":"2 49158  69.9973 240.6035 0002635 273.9493  86.1365 14.98323466 78487","OBJECT_TYPE":"PAYLOAD","MEAN_MOTION_DDOT":"0.0000000000000","ECCENTRICITY":"0.00026350","COUNTRY_CODE":"US","MEAN_MOTION_DOT":"0.00002255","MEAN_ANOMALY":"86.1365","FILE":"3772514"},{"MEAN_ELEMENT_THEORY":"SGP4","TIME_SYSTEM":"UTC","BSTAR":"0.00007900200000","NORAD_CAT_ID":"49159","GP_ID":"224440262","TLE_LINE1":"1 49159U 21082AF  23035.91075063  .00000850  00000-0  79002-4 0  9990","RA_OF_ASC_NODE":"260.5069","APOAPSIS":"573.923","LAUNCH_DATE":"2021-09-14","ELEMENT_SET_NO":"999","EPHEMERIS_TYPE":"0","CLASSIFICATION_TYPE":"U","REV_AT_EPOCH":"7799","CENTER_NAME":"EARTH","PERIOD":"96.107","OBJECT_ID":"2021-082AF","RCS_SIZE":"LARGE","SEMIMAJOR_AXIS":"6950.175","OBJECT_NAME":"STARLINK-3056","SITE":"AFWTR","TLE_LINE2":"2 49159  69.9970 260.5069 0002709 272.7533  87.3316 14.98335800 77996","MEAN_MOTION":"14.98335800","REF_FRAME":"TEME","DECAY_DATE":null,"PERIAPSIS":"570.157","INCLINATION":"69.9970","ARG_OF_PERICENTER":"272.7533","EPOCH":"2023-02-04T21:51:28.854432","ECCENTRICITY":"0.00027090","MEAN_MOTION_DDOT":"0.0000000000000","OBJECT_TYPE":"PAYLOAD","MEAN_ANOMALY":"87.3316","FILE":"3772514","COUNTRY_CODE":"US","MEAN_MOTION_DOT":"0.00000850"},{"RCS_SIZE":"LARGE","OBJECT_ID":"2021-082AG","PERIOD":"96.106","REV_AT_EPOCH":"7796","CENTER_NAME":"EARTH","GP_ID":"224440998","TLE_LINE1":"1 49160U 21082AG  23035.90121037  .00001687  00000-0  14912-3 0  9991","RA_OF_ASC_NODE":"260.5326","NORAD_CAT_ID":"49160","CLASSIFICATION_TYPE":"U","ELEMENT_SET_NO":"999","EPHEMERIS_TYPE":"0","LAUNCH_DATE":"2021-09-14","APOAPSIS":"573.938","BSTAR":"0.00014912000000","TIME_SYSTEM":"UTC","MEAN_ELEMENT_THEORY":"SGP4","COUNTRY_CODE":"US","MEAN_MOTION_DOT":"0.00001687","FILE":"3772514","MEAN_ANOMALY":"85.3686","ECCENTRICITY":"0.00027400","OBJECT_TYPE":"PAYLOAD","MEAN_MOTION_DDOT":"0.0000000000000","REF_FRAME":"TEME","DECAY_DATE":null,"PERIAPSIS":"570.129","INCLINATION":"69.9981","ARG_OF_PERICENTER":"274.7160","TLE_LINE2":"2 49160  69.9981 260.5326 0002740 274.7160  85.3686 14.98337865 77967","MEAN_MOTION":"14.98337865","EPOCH":"2023-02-04T21:37:44.575968","OBJECT_NAME":"STARLINK-3095","SEMIMAJOR_AXIS":"6950.169","SITE":"AFWTR"},{"OBJECT_ID":"2021-082AH","RCS_SIZE":"LARGE","PERIOD":"96.106","CENTER_NAME":"EARTH","REV_AT_EPOCH":"7797","GP_ID":"224439264","TLE_LINE1":"1 49161U 21082AH  23035.90598086  .00002649  00000-0  22968-3 0  9993","RA_OF_ASC_NODE":"260.5091","NORAD_CAT_ID":"49161","ELEMENT_SET_NO":"999","EPHEMERIS_TYPE":"0","CLASSIFICATION_TYPE":"U","APOAPSIS":"573.899","LAUNCH_DATE":"2021-09-14","TIME_SYSTEM":"UTC","BSTAR":"0.00022968000000","MEAN_ELEMENT_THEORY":"SGP4","COUNTRY_CODE":"US","MEAN_MOTION_DOT":"0.00002649","MEAN_ANOMALY":"84.0744","FILE":"3772514","ECCENTRICITY":"0.00026840","OBJECT_TYPE":"PAYLOAD","MEAN_MOTION_DDOT":"0.0000000000000","DECAY_DATE":null,"INCLINATION":"70.0001","PERIAPSIS":"570.168","REF_FRAME":"TEME","ARG_OF_PERICENTER":"276.0109","MEAN_MOTION":"14.98337849","TLE_LINE2":"2 49161  70.0001 260.5091 0002684 276.0109  84.0744 14.98337849 77972","EPOCH":"2023-02-04T21:44:36.746304","SEMIMAJOR_AXIS":"6950.169","OBJECT_NAME":"STARLINK-3080","SITE":"AFWTR"},{"OBJECT_NAME":"STARLINK-3082","SEMIMAJOR_AXIS":"6950.157","SITE":"AFWTR","DECAY_DATE":null,"ARG_OF_PERICENTER":"271.7674","PERIAPSIS":"569.875","REF_FRAME":"TEME","INCLINATION":"69.9983","TLE_LINE2":"2 49162  69.9983 260.5405 0003088 271.7674  88.3131 14.98341715 78050","MEAN_MOTION":"14.98341715","EPOCH":"2023-02-04T21:30:52.465248","ECCENTRICITY":"0.00030880","OBJECT_TYPE":"PAYLOAD","MEAN_MOTION_DDOT":"0.0000000000000","MEAN_MOTION_DOT":"0.00000528","COUNTRY_CODE":"US","FILE":"3772514","MEAN_ANOMALY":"88.3131","BSTAR":"0.00005200900000","TIME_SYSTEM":"UTC","MEAN_ELEMENT_THEORY":"SGP4","RA_OF_ASC_NODE":"260.5405","TLE_LINE1":"1 49162U 21082AJ  23035.89644057  .00000528  00000-0  52009-4 0  9996","GP_ID":"224440015","NORAD_CAT_ID":"49162","CLASSIFICATION_TYPE":"U","ELEMENT_SET_NO":"999","EPHEMERIS_TYPE":"0","LAUNCH_DATE":"2021-09-14","APOAPSIS":"574.168","REV_AT_EPOCH":"7805","CENTER_NAME":"EARTH","RCS_SIZE":"LARGE","OBJECT_ID":"2021-082AJ","PERIOD":"96.106"},{"MEAN_ANOMALY":"87.4672","FILE":"3772514","MEAN_MOTION_DOT":"0.00000734","COUNTRY_CODE":"US","ECCENTRICITY":"0.00027210","MEAN_MOTION_DDOT":"0.0000000000000","OBJECT_TYPE":"PAYLOAD","TLE_LINE2":"2 49163  69.9971 240.6153 0002721 272.6175  87.4672 14.98331526 78549","MEAN_MOTION":"14.98331526","DECAY_DATE":null,"REF_FRAME":"TEME","PERIAPSIS":"570.162","INCLINATION":"69.9971","ARG_OF_PERICENTER":"272.6175","EPOCH":"2023-02-04T20:51:35.401536","SEMIMAJOR_AXIS":"6950.188","OBJECT_NAME":"STARLINK-3088","SITE":"AFWTR","PERIOD":"96.107","OBJECT_ID":"2021-082AK","RCS_SIZE":"LARGE","REV_AT_EPOCH":"7854","CENTER_NAME":"EARTH","NORAD_CAT_ID":"49163","TLE_LINE1":"1 49163U 21082AK  23035.86915974  .00000734  00000-0  69321-4 0  9997","GP_ID":"224440763","RA_OF_ASC_NODE":"240.6153","LAUNCH_DATE":"2021-09-14","APOAPSIS":"573.944","ELEMENT_SET_NO":"999","CLASSIFICATION_TYPE":"U","EPHEMERIS_TYPE":"0","MEAN_ELEMENT_THEORY":"SGP4","TIME_SYSTEM":"UTC","BSTAR":"0.00006932100000"},{"COUNTRY_CODE":"US","MEAN_MOTION_DOT":"0.00000854","FILE":"3772514","MEAN_ANOMALY":"87.7567","OBJECT_TYPE":"PAYLOAD","MEAN_MOTION_DDOT":"0.0000000000000","ECCENTRICITY":"0.00029260","EPOCH":"2023-02-04T22:13:59.310624","REF_FRAME":"TEME","DECAY_DATE":null,"PERIAPSIS":"570.011","INCLINATION":"69.9982","ARG_OF_PERICENTER":"272.3257","TLE_LINE2":"2 49164  69.9982 240.4645 0002926 272.3257  87.7567 14.98334264 78561","MEAN_MOTION":"14.98334264","SITE":"AFWTR","OBJECT_NAME":"STARLINK-3106","SEMIMAJOR_AXIS":"6950.180","RCS_SIZE":"LARGE","OBJECT_ID":"2021-082AL","PERIOD":"96.107","REV_AT_EPOCH":"7856","CENTER_NAME":"EARTH","ELEMENT_SET_NO":"999","CLASSIFICATION_TYPE":"U","EPHEMERIS_TYPE":"0","APOAPSIS":"574.078","LAUNCH_DATE":"2021-09-14","TLE_LINE1":"1 49164U 21082AL  23035.92638091  .00000854  00000-0  79343-4 0  9995","GP_ID":"224440498","RA_OF_ASC_NODE":"240.4645","NORAD_CAT_ID":"49164","BSTAR":"0.00007934300000","TIME_SYSTEM":"UTC","MEAN_ELEMENT_THEORY":"SGP4"},{"NORAD_CAT_ID":"49165","RA_OF_ASC_NODE":"260.5559","TLE_LINE1":"1 49165U 21082AM  23035.89167570  .00000907  00000-0  83776-4 0  9995","GP_ID":"224439765","APOAPSIS":"574.112","LAUNCH_DATE":"2021-09-14","CLASSIFICATION_TYPE":"U","ELEMENT_SET_NO":"999","EPHEMERIS_TYPE":"0","MEAN_ELEMENT_THEORY":"SGP4","TIME_SYSTEM":"UTC","BSTAR":"0.00008377600000","PERIOD":"96.107","OBJECT_ID":"2021-082AM","RCS_SIZE":"LARGE","CENTER_NAME":"EARTH","REV_AT_EPOCH":"7809","TLE_LINE2":"2 49165  69.9988 260.5559 0002976 267.7378  92.3440 14.98334654 78095","MEAN_MOTION":"14.98334654","DECAY_DATE":null,"INCLINATION":"69.9988","PERIAPSIS":"569.975","ARG_OF_PERICENTER":"267.7378","REF_FRAME":"TEME","EPOCH":"2023-02-04T21:24:00.780480","SEMIMAJOR_AXIS":"6950.178","OBJECT_NAME":"STARLINK-3052","SITE":"AFWTR","MEAN_ANOMALY":"92.3440","FILE":"3772514","COUNTRY_CODE":"US","MEAN_MOTION_DOT":"0.00000907","ECCENTRICITY":"0.00029760","MEAN_MOTION_DDOT":"0.0000000000000","OBJECT_TYPE":"PAYLOAD"},{"SITE":"AFWTR","SEMIMAJOR_AXIS":"6950.177","OBJECT_NAME":"STARLINK-3089","EPOCH":"2023-02-04T20:44:43.099872","TLE_LINE2":"2 49166  69.9980 240.6262 0002838 268.5459  91.5375 14.98335082 78582","MEAN_MOTION":"14.98335082","PERIAPSIS":"570.070","DECAY_DATE":null,"REF_FRAME":"TEME","ARG_OF_PERICENTER":"268.5459","INCLINATION":"69.9980","MEAN_MOTION_DDOT":"0.0000000000000","OBJECT_TYPE":"PAYLOAD","ECCENTRICITY":"0.00028380","MEAN_ANOMALY":"91.5375","FILE":"3772514","COUNTRY_CODE":"US","MEAN_MOTION_DOT":"0.00001004","MEAN_ELEMENT_THEORY":"SGP4","TIME_SYSTEM":"UTC","BSTAR":"0.00009193800000","LAUNCH_DATE":"2021-09-14","APOAPSIS":"574.015","EPHEMERIS_TYPE":"0","ELEMENT_SET_NO":"999","CLASSIFICATION_TYPE":"U","NORAD_CAT_ID":"49166","GP_ID":"224440516","TLE_LINE1":"1 49166U 21082AN  23035.86438773  .00001004  00000-0  91938-4 0  9997","RA_OF_ASC_NODE":"240.6262","CENTER_NAME":"EARTH","REV_AT_EPOCH":"7858","PERIOD":"96.107","OBJECT_ID":"2021-082AN","RCS_SIZE":"LARGE"},{"ECCENTRICITY":"0.00027740","OBJECT_TYPE":"PAYLOAD","MEAN_MOTION_DDOT":"0.0000000000000","COUNTRY_CODE":"US","MEAN_MOTION_DOT":"0.00000375","MEAN_ANOMALY":"92.5723","FILE":"3772514","SEMIMAJOR_AXIS":"6950.191","OBJECT_NAME":"STARLINK-3054","SITE":"AFWTR","DECAY_DATE":null,"PERIAPSIS":"570.128","ARG_OF_PERICENTER":"267.5119","INCLINATION":"69.9995","REF_FRAME":"TEME","TLE_LINE2":"2 49167  69.9995 260.5647 0002774 267.5119  92.5723 14.98330739 78096","MEAN_MOTION":"14.98330739","EPOCH":"2023-02-04T21:17:09.013632","REV_AT_EPOCH":"7809","CENTER_NAME":"EARTH","OBJECT_ID":"2021-082AP","RCS_SIZE":"LARGE","PERIOD":"96.107","TIME_SYSTEM":"UTC","BSTAR":"0.00003923700000","MEAN_ELEMENT_THEORY":"SGP4","GP_ID":"224440263","TLE_LINE1":"1 49167U 21082AP  23035.88690988  .00000375  00000-0  39237-4 0  9992","RA_OF_ASC_NODE":"260.5647","NORAD_CAT_ID":"49167","CLASSIFICATION_TYPE":"U","ELEMENT_SET_NO":"999","EPHEMERIS_TYPE":"0","APOAPSIS":"573.984","LAUNCH_DATE":"2021-09-14"}];
